NORAD_CAT_ID,OBJECT_NAME,OBJECT_TYPE,EPOCH,MEAN_MOTION,ECCENTRICITY,INCLINATION,RA_OF_ASC_NODE,ARG_OF_PERICENTER,MEAN_ANOMALY,BSTAR,MEAN_MOTION_DOT,MEAN_MOTION_DDOT,TLE_LINE0,TLE_LINE1,TLE_LINE2,SEMIMAJOR_AXIS,PERIOD,APOGEE,PERIGEE,DECAYED
54085.0,STARLINK-5166,PAYLOAD,2024-02-28 09:22:05,15.08846907,0.0001417,53.2166,57.4784,91.1586,268.9568,6.9651e-05,8.21e-06,0.0,0 STARLINK-5166,1 54085U 22136AL  24059.39034645  .00000821  00000-0  69651-4 0  9992,2 54085  53.2166  57.4784 0001417  91.1586 268.9568 15.08846907 75694,6917.859,95.437,540.705,538.744,0.0
54085.0,STARLINK-5166,PAYLOAD,2024-02-28 17:19:01,15.0884388,0.000146,53.2175,55.9911,91.8932,268.2227,4.2116e-05,3.82e-06,0.0,0 STARLINK-5166,1 54085U 22136AL  24059.72154781  .00000382  00000-0  42116-4 0  9992,2 54085  53.2175  55.9911 0001460  91.8932 268.2227 15.08843880 75275,6917.869,95.437,540.744,538.724,0.0
54085.0,STARLINK-5166,PAYLOAD,2024-02-29 06:02:07,15.08840451,0.000155,53.218,53.6115,115.4246,244.6907,7.5393e-05,9.12e-06,0.0,0 STARLINK-5166,1 54085U 22136AL  24060.25147012  .00000912  00000-0  75393-4 0  9993,2 54085  53.2180  53.6115 0001550 115.4246 244.6907 15.08840451 75828,6917.879,95.438,540.816,538.672,0.0
54085.0,STARLINK-5166,PAYLOAD,2024-03-01 09:03:40,15.08844443,0.0001307,53.2168,48.5596,90.2078,269.9064,1.0358e-05,-1.23e-06,0.0,0 STARLINK-5166,1 54085U 22136AL  24061.37755163 -.00000123  00000-0  10358-4 0  9994,2 54085  53.2168  48.5596 0001307  90.2078 269.9064 15.08844443 75529,6917.867,95.437,540.636,538.828,0.0
54085.0,STARLINK-5166,PAYLOAD,2024-03-02 04:08:18,15.08841194,0.0001514,53.2181,44.9896,98.1658,261.9506,6.8451e-05,8.02e-06,0.0,0 STARLINK-5166,1 54085U 22136AL  24062.17243260  .00000802  00000-0  68451-4 0  9993,2 54085  53.2181  44.9896 0001514  98.1658 261.9506 15.08841194 75644,6917.877,95.437,540.789,538.694,0.0
54085.0,STARLINK-5166,PAYLOAD,2024-03-03 05:34:28,15.08838478,0.0001426,53.2182,40.2339,99.6652,260.4501,3.254e-05,2.3e-06,0.0,0 STARLINK-5166,1 54085U 22136AL  24063.23227818  .00000230  00000-0  32540-4 0  9997,2 54085  53.2182  40.2339 0001426  99.6652 260.4501 15.08838478 76278,6917.885,95.438,540.737,538.764,0.0
54085.0,STARLINK-5166,PAYLOAD,2024-03-03 07:09:51,15.08838054,0.000143,53.2184,39.9366,85.5958,274.5198,5.3552e-05,5.64e-06,0.0,0 STARLINK-5166,1 54085U 22136AL  24063.29851842  .00000564  00000-0  53552-4 0  9999,2 54085  53.2184  39.9366 0001430  85.5958 274.5198 15.08838054 75810,6917.886,95.438,540.741,538.762,0.0
54085.0,STARLINK-5166,PAYLOAD,2024-03-04 05:25:15,15.08851584,0.0001499,53.2193,35.7755,96.3033,263.813,4.7397e-05,4.67e-06,0.0,0 STARLINK-5166,1 54085U 22136AL  24064.22586913  .00000467  00000-0  47397-4 0  9999,2 54085  53.2193  35.7755 0001499  96.3033 263.8130 15.08851584 76423,6917.845,95.437,540.747,538.673,0.0
54085.0,STARLINK-5166,PAYLOAD,2024-03-04 07:00:37,15.08857466,0.0001443,53.2188,35.4768,98.0287,262.0869,0.00021047,3.065e-05,0.0,0 STARLINK-5166,1 54085U 22136AL  24064.29210156  .00003065  00000-0  21047-3 0  9999,2 54085  53.2188  35.4768 0001443  98.0287 262.0869 15.08857466 76433,6917.827,95.436,540.69,538.694,0.0
54085.0,STARLINK-5166,PAYLOAD,2024-03-05 03:40:40,15.08814989,0.0002047,53.2196,31.6086,133.4152,226.7011,0.00019897,2.878e-05,0.0,0 STARLINK-5166,1 54085U 22136AL  24065.15324754  .00002878  00000-0  19897-3 0  9996,2 54085  53.2196  31.6086 0002047 133.4152 226.7011 15.08814989 76562,6917.957,95.439,541.238,538.406,0.0
54085.0,STARLINK-5166,PAYLOAD,2024-03-05 06:51:27,15.08827532,0.0001402,53.2182,31.0149,77.2239,282.891,-1.536e-05,-5.32e-06,0.0,0 STARLINK-5166,1 54085U 22136AL  24065.28573161 -.00000532  00000-0 -15360-4 0  9997,2 54085  53.2182  31.0149 0001402  77.2239 282.8910 15.08827532 76116,6917.918,95.438,540.753,538.814,0.0
54085.0,STARLINK-5166,PAYLOAD,2024-03-06 03:31:26,15.08848883,0.0001754,53.217,27.1552,62.8458,297.2713,7.4568e-05,8.99e-06,0.0,0 STARLINK-5166,1 54085U 22136AL  24066.14683749  .00000899  00000-0  74568-4 0  9996,2 54085  53.2170  27.1552 0001754  62.8458 297.2713 15.08848883 76719,6917.853,95.437,540.932,538.505,0.0
54085.0,STARLINK-5166,PAYLOAD,2024-03-06 06:42:12,15.08860239,0.0001651,53.2187,26.5513,78.1359,281.9818,0.0002427,3.579e-05,0.0,0 STARLINK-5166,1 54085U 22136AL  24066.27931186  .00003579  00000-0  24270-3 0  9993,2 54085  53.2187  26.5513 0001651  78.1359 281.9818 15.08860239 76730,6917.819,95.436,540.826,538.541,0.0
54085.0,STARLINK-5166,PAYLOAD,2024-03-07 03:22:14,15.0883904,0.0001609,53.2191,22.6837,108.5952,251.5215,0.00016562,2.349e-05,0.0,0 STARLINK-5166,1 54085U 22136AL  24067.14044173  .00002349  00000-0  16562-3 0  9990,2 54085  53.2191  22.6837 0001609 108.5952 251.5215 15.08839040 76865,6917.883,95.438,540.861,538.635,0.0
54085.0,STARLINK-5166,PAYLOAD,2024-03-07 14:29:56,15.08842151,0.0001549,53.218,20.6075,77.404,282.7125,0.00011641,1.565e-05,0.0,0 STARLINK-5166,1 54085U 22136AL  24067.60412230  .00001565  00000-0  11641-3 0  9996,2 54085  53.2180  20.6075 0001549  77.4040 282.7125 15.08842151 76469,6917.874,95.437,540.81,538.667,0.0
54085.0,STARLINK-5166,PAYLOAD,2024-03-08 06:23:46,15.08852546,0.0001528,53.2184,17.6312,97.83,262.2865,6.9082e-05,8.12e-06,0.0,0 STARLINK-5166,1 54085U 22136AL  24068.26651435  .00000812  00000-0  69082-4 0  9998,2 54085  53.2184  17.6312 0001528  97.8300 262.2865 15.08852546 77032,6917.842,95.437,540.764,538.65,0.0
54085.0,STARLINK-5166,PAYLOAD,2024-03-08 20:42:15,15.0884213,0.0001675,53.219,14.9536,104.6914,255.4263,5.6343e-05,6.09e-06,0.0,0 STARLINK-5166,1 54085U 22136AL  24068.86267907  .00000609  00000-0  56343-4 0  9991,2 54085  53.2190  14.9536 0001675 104.6914 255.4263 15.08842130 76659,6917.874,95.437,540.898,538.58,0.0
54085.0,STARLINK-5166,PAYLOAD,2024-03-09 03:03:47,15.08847736,0.0001549,53.2184,13.7677,89.7179,270.3991,0.00019763,2.859e-05,0.0,0 STARLINK-5166,1 54085U 22136AL  24069.12763639  .00002859  00000-0  19763-3 0  9997,2 54085  53.2184  13.7677 0001549  89.7179 270.3991 15.08847736 77169,6917.857,95.437,540.793,538.65,0.0
54085.0,STARLINK-5166,PAYLOAD,2024-03-09 06:14:35,15.08809667,0.0001397,53.2187,13.1708,85.9904,274.1247,-0.0003258,-5.465e-05,0.0,0 STARLINK-5166,1 54085U 22136AL  24069.26013653 -.00005465  00000-0 -32580-3 0  9996,2 54085  53.2187  13.1708 0001397  85.9904 274.1247 15.08809667 77185,6917.973,95.439,540.805,538.872,0.0
54085.0,STARLINK-5166,PAYLOAD,2024-03-10 02:55:00,15.08514034,0.0002188,53.2187,9.3082,116.6679,243.4537,-0.0033916,-0.00053391,0.0,0 STARLINK-5166,1 54085U 22136AL  24070.12153018 -.00053391  00000-0 -33916-2 0  9997,2 54085  53.2187   9.3082 0002188 116.6679 243.4537 15.08514034 77314,6918.877,95.458,542.256,539.228,0.0
54085.0,STARLINK-5166,PAYLOAD,2024-03-10 10:52:13,15.08292174,0.0001255,53.2178,7.8235,89.5045,270.6091,-0.0058015,-0.00090106,0.0,0 STARLINK-5166,1 54085U 22136AL  24070.45292905 -.00090106  00000-0 -58015-2 0  9994,2 54085  53.2178   7.8235 0001255  89.5045 270.6091 15.08292174 77366,6919.555,95.472,542.289,540.552,0.0
54085.0,STARLINK-5166,PAYLOAD,2024-03-11 04:21:49,15.08323878,0.000126,53.2185,4.5556,103.5486,256.5646,-0.0026056,-0.00040941,0.0,0 STARLINK-5166,1 54085U 22136AL  24071.18182563 -.00040941  00000-0 -26056-2 0  9995,2 54085  53.2185   4.5556 0001260 103.5486 256.5646 15.08323878 77473,6919.458,95.47,542.195,540.452,0.0
54085.0,STARLINK-5166,PAYLOAD,2024-03-11 12:18:49,15.08433168,0.0001255,53.2169,3.0699,102.7439,257.3693,0.00015785,2.199e-05,0.0,0 STARLINK-5166,1 54085U 22136AL  24071.51307128  .00002199  00000-0  15785-3 0  9997,2 54085  53.2169   3.0699 0001255 102.7439 257.3693 15.08433168 77521,6919.124,95.463,541.858,540.121,0.0
54085.0,STARLINK-5166,PAYLOAD,2024-03-12 04:12:52,15.08556638,0.0001455,53.2178,0.0961,84.2112,275.9046,0.0058079,0.0009264,0.0,0 STARLINK-5166,1 54085U 22136AL  24072.17560722  .00092640  00000-0  58079-2 0  9993,2 54085  53.2178   0.0961 0001455  84.2112 275.9046 15.08556638 77621,6918.747,95.455,541.618,539.605,0.0
54085.0,STARLINK-5166,PAYLOAD,2024-03-12 12:09:52,15.08598109,0.0001558,53.2176,358.6096,84.8256,275.2914,0.0052251,0.000833,0.0,0 STARLINK-5166,1 54085U 22136AL  24072.50685365  .00083300  00000-0  52251-2 0  9990,2 54085  53.2176 358.6096 0001558  84.8256 275.2914 15.08598109 77209,6918.62,95.453,541.563,539.407,0.0
54085.0,STARLINK-5166,PAYLOAD,2024-03-13 04:03:46,15.08704711,0.0001714,53.2181,355.6337,79.5301,280.5884,0.0037971,0.00060437,0.0,0 STARLINK-5166,1 54085U 22136AL  24073.16928831  .00060437  00000-0  37971-2 0  9999,2 54085  53.2181 355.6337 0001714  79.5301 280.5884 15.08704711 77771,6918.294,95.446,541.345,538.973,0.0
54085.0,STARLINK-5166,PAYLOAD,2024-03-13 12:00:42,15.08746654,6.33e-05,53.2184,354.1482,82.9446,277.1618,0.0028995,0.00046041,0.0,0 STARLINK-5166,1 54085U 22136AL  24073.50048740  .00046041  00000-0  28995-2 0  9990,2 54085  53.2184 354.1482 0000633  82.9446 277.1618 15.08746654 77821,6918.166,95.443,540.469,539.593,0.0
54085.0,STARLINK-5166,PAYLOAD,2024-03-13 18:22:13,15.08782846,0.0001433,53.2185,352.9581,110.0458,250.0688,0.0014662,0.00023087,0.0,0 STARLINK-5166,1 54085U 22136AL  24073.76543757  .00023087  00000-0  14662-2 0  9997,2 54085  53.2185 352.9581 0001433 110.0458 250.0688 15.08782846 77867,6918.055,95.441,540.911,538.929,0.0
54085.0,STARLINK-5166,PAYLOAD,2024-03-14 03:54:29,15.08848383,0.0001649,53.2176,351.1756,84.1811,275.9369,0.00023643,3.478e-05,0.0,0 STARLINK-5166,1 54085U 22136AL  24074.16284231  .00003478  00000-0  23643-3 0  9993,2 54085  53.2176 351.1756 0001649  84.1811 275.9369 15.08848383 77923,6917.855,95.437,540.861,538.579,0.0
54085.0,STARLINK-5166,PAYLOAD,2024-03-15 03:45:16,15.08848621,0.0001791,53.2174,346.7122,113.7017,246.4163,0.00014798,2.068e-05,0.0,0 STARLINK-5166,1 54085U 22136AL  24075.15644046  .00002068  00000-0  14798-3 0  9992,2 54085  53.2174 346.7122 0001791 113.7017 246.4163 15.08848621 78070,6917.854,95.437,540.958,538.48,0.0
